ONEWEB-0403             
1 50483U 21132Q   24164.93580049 -.00000033  00000+0 -11756-3 0  9994
2 50483  87.9138 121.6274 0001997  89.0181 271.1180 13.18683568124820
ONEWEB-0404             
1 50484U 21132R   24164.89878657 -.00000029  00000+0 -11844-3 0  9998
2 50484  87.8964 167.1730 0001628  96.8354 263.2959 13.11420283119453
ONEWEB-0405             
1 50485U 21132S   24165.17925556  .00000108  00000+0  24230-3 0  9991
2 50485  87.9137 121.5685 0002315  93.7567 266.3830 13.18686268126540
ONEWEB-0406             
1 50486U 21132T   24165.16817615  .00000059  00000+0  11676-3 0  9992
2 50486  87.9140 121.5821 0001706  80.3715 279.7610 13.18685066126175
ONEWEB-0407             
1 50487U 21132U   24164.93421595  .00000068  00000+0  14066-3 0  9991
2 50487  87.9135 121.6307 0002109  88.7377 271.3997 13.18684404124791
ONEWEB-0409             
1 50488U 21132V   24165.04968361  .00000794  00000+0  22036-2 0  9993
2 50488  87.8963 167.1405 0001600  81.5061 278.6248 13.11423360120644
ONEWEB-0412             
1 50489U 21132W   24164.92317203  .00000045  00000+0  82016-4 0  9998
2 50489  87.9140 121.6323 0002343  95.9988 264.1411 13.18685600124885
ONEWEB-0413             
1 50490U 21132X   24164.92791121  .00000069  00000+0  14169-3 0  9994
2 50490  87.9139 121.6443 0002442  90.9170 269.2241 13.18685709124827
ONEWEB-0414             
1 50491U 21132Y   24165.14128849  .00000035  00000+0  57037-4 0  9996
2 50491  87.9136 121.5805 0002095  92.1308 268.0064 13.18687665126170
ONEWEB-0417             
1 50492U 21132Z   24164.92159269  .00000031  00000+0  46473-4 0  9990
2 50492  87.9143 121.6268 0001785  81.7741 278.3593 13.18686920124838
ONEWEB-0418             
1 50493U 21132AA  24164.93091821 -.00000022  00000+0 -88156-4 0  9997
2 50493  87.9139 121.6282 0001559  82.7770 277.3539 13.18684218124895
ONEWEB-0419             
1 50494U 21132AB  24164.87258265  .00000042  00000+0  72841-4 0  9992
2 50494  87.9132 121.6572 0001900  74.9911 285.1431 13.18685761124804
ONEWEB-0420             
1 50495U 21132AC  24164.91524042 -.00000110  00000+0 -31167-3 0  9990
2 50495  87.9134 121.6573 0002457  84.6964 275.4449 13.18688071124800
ONEWEB-0421             
1 50496U 21132AD  24164.90893502  .00000070  00000+0  14593-3 0  9997
2 50496  87.9143 121.6242 0002146  94.2794 265.8583 13.18684687124842
ONEWEB-0424             
1 50497U 21132AE  24164.86781724  .00000023  00000+0  24990-4 0  9996
2 50497  87.9136 121.6385 0002012  67.2528 292.8817 13.18687406124864
ONEWEB-0426             
1 50498U 21132AF  24164.90576810  .00000075  00000+0  15728-3 0  9995
2 50498  87.9135 121.6482 0001627  98.2462 261.8855 13.18684624124816
ONEWEB-0427             
1 50499U 21132AG  24164.86624315  .00000045  00000+0  81033-4 0  9995
2 50499  87.9135 121.6336 0001836  83.8522 276.2819 13.18684206124832
