[{"OBJECT_NAME":"ONEWEB-0403","OBJECT_ID":"2021-132Q","EPOCH":"2024-06-12T22:27:33.162336","MEAN_MOTION":13.18683568,"ECCENTRICITY":0.0001997,"INCLINATION":87.9138,"RA_OF_ASC_NODE":121.6274,"ARG_OF_PERICENTER":89.0181,"MEAN_ANOMALY":271.118,"EPHEMERIS_TYPE":0,"CLASSIFICATION_TYPE":"U","NORAD_CAT_ID":50483,"ELEMENT_SET_NO":999,"REV_AT_EPOCH":12482,"BSTAR":-0.00011756,"MEAN_MOTION_DOT":-3.3e-7,"MEAN_MOTION_DDOT":0},{"OBJECT_NAME":"ONEWEB-0404","OBJECT_ID":"2021-132R","EPOCH":"2024-06-12T21:34:15.159648","MEAN_MOTION":13.11420283,"ECCENTRICITY":0.0001628,"INCLINATION":87.8964,"RA_OF_ASC_NODE":167.173,"ARG_OF_PERICENTER":96.8354,"MEAN_ANOMALY":263.2959,"EPHEMERIS_TYPE":0,"CLASSIFICATION_TYPE":"U","NORAD_CAT_ID":50484,"ELEMENT_SET_NO":999,"REV_AT_EPOCH":11945,"BSTAR":-0.00011844,"MEAN_MOTION_DOT":-2.9e-7,"MEAN_MOTION_DDOT":0},{"OBJECT_NAME":"ONEWEB-0405","OBJECT_ID":"2021-132S","EPOCH":"2024-06-13T04:18:07.680384","MEAN_MOTION":13.18686268,"ECCENTRICITY":0.0002315,"INCLINATION":87.9137,"RA_OF_ASC_NODE":121.5685,"ARG_OF_PERICENTER":93.7567,"MEAN_ANOMALY":266.383,"EPHEMERIS_TYPE":0,"CLASSIFICATION_TYPE":"U","NORAD_CAT_ID":50485,"ELEMENT_SET_NO":999,"REV_AT_EPOCH":12654,"BSTAR":0.0002423,"MEAN_MOTION_DOT":1.08e-6,"MEAN_MOTION_DDOT":0},{"OBJECT_NAME":"ONEWEB-0406","OBJECT_ID":"2021-132T","EPOCH":"2024-06-13T04:02:10.419360","MEAN_MOTION":13.18685066,"ECCENTRICITY":0.0001706,"INCLINATION":87.914,"RA_OF_ASC_NODE":121.5821,"ARG_OF_PERICENTER":80.3715,"MEAN_ANOMALY":279.761,"EPHEMERIS_TYPE":0,"CLASSIFICATION_TYPE":"U","NORAD_CAT_ID":50486,"ELEMENT_SET_NO":999,"REV_AT_EPOCH":12617,"BSTAR":0.00011676,"MEAN_MOTION_DOT":5.9e-7,"MEAN_MOTION_DDOT":0},{"OBJECT_NAME":"ONEWEB-0407","OBJECT_ID":"2021-132U","EPOCH":"2024-06-12T22:25:16.258080","MEAN_MOTION":13.18684404,"ECCENTRICITY":0.0002109,"INCLINATION":87.9135,"RA_OF_ASC_NODE":121.6307,"ARG_OF_PERICENTER":88.7377,"MEAN_ANOMALY":271.3997,"EPHEMERIS_TYPE":0,"CLASSIFICATION_TYPE":"U","NORAD_CAT_ID":50487,"ELEMENT_SET_NO":999,"REV_AT_EPOCH":12479,"BSTAR":0.00014066,"MEAN_MOTION_DOT":6.8e-7,"MEAN_MOTION_DDOT":0},{"OBJECT_NAME":"ONEWEB-0409","OBJECT_ID":"2021-132V","EPOCH":"2024-06-13T01:11:32.663904","MEAN_MOTION":13.1142336,"ECCENTRICITY":0.00016,"INCLINATION":87.8963,"RA_OF_ASC_NODE":167.1405,"ARG_OF_PERICENTER":81.5061,"MEAN_ANOMALY":278.6248,"EPHEMERIS_TYPE":0,"CLASSIFICATION_TYPE":"U","NORAD_CAT_ID":50488,"ELEMENT_SET_NO":999,"REV_AT_EPOCH":12064,"BSTAR":0.0022036,"MEAN_MOTION_DOT":7.94e-6,"MEAN_MOTION_DDOT":0},{"OBJECT_NAME":"ONEWEB-0412","OBJECT_ID":"2021-132W","EPOCH":"2024-06-12T22:09:22.063392","MEAN_MOTION":13.186856,"ECCENTRICITY":0.0002343,"INCLINATION":87.914,"RA_OF_ASC_NODE":121.6323,"ARG_OF_PERICENTER":95.9988,"MEAN_ANOMALY":264.1411,"EPHEMERIS_TYPE":0,"CLASSIFICATION_TYPE":"U","NORAD_CAT_ID":50489,"ELEMENT_SET_NO":999,"REV_AT_EPOCH":12488,"BSTAR":8.2016e-5,"MEAN_MOTION_DOT":4.5e-7,"MEAN_MOTION_DDOT":0},{"OBJECT_NAME":"ONEWEB-0413","OBJECT_ID":"2021-132X","EPOCH":"2024-06-12T22:16:11.528544","MEAN_MOTION":13.18685709,"ECCENTRICITY":0.0002442,"INCLINATION":87.9139,"RA_OF_ASC_NODE":121.6443,"ARG_OF_PERICENTER":90.917,"MEAN_ANOMALY":269.2241,"EPHEMERIS_TYPE":0,"CLASSIFICATION_TYPE":"U","NORAD_CAT_ID":50490,"ELEMENT_SET_NO":999,"REV_AT_EPOCH":12482,"BSTAR":0.00014169,"MEAN_MOTION_DOT":6.9e-7,"MEAN_MOTION_DDOT":0},{"OBJECT_NAME":"ONEWEB-0414","OBJECT_ID":"2021-132Y","EPOCH":"2024-06-13T03:23:27.325536","MEAN_MOTION":13.18687665,"ECCENTRICITY":0.0002095,"INCLINATION":87.9136,"RA_OF_ASC_NODE":121.5805,"ARG_OF_PERICENTER":92.1308,"MEAN_ANOMALY":268.0064,"EPHEMERIS_TYPE":0,"CLASSIFICATION_TYPE":"U","NORAD_CAT_ID":50491,"ELEMENT_SET_NO":999,"REV_AT_EPOCH":12617,"BSTAR":5.7037e-5,"MEAN_MOTION_DOT":3.5e-7,"MEAN_MOTION_DDOT":0},{"OBJECT_NAME":"ONEWEB-0417","OBJECT_ID":"2021-132Z","EPOCH":"2024-06-12T22:07:05.608416","MEAN_MOTION":13.1868692,"ECCENTRICITY":0.0001785,"INCLINATION":87.9143,"RA_OF_ASC_NODE":121.6268,"ARG_OF_PERICENTER":81.7741,"MEAN_ANOMALY":278.3593,"EPHEMERIS_TYPE":0,"CLASSIFICATION_TYPE":"U","NORAD_CAT_ID":50492,"ELEMENT_SET_NO":999,"REV_AT_EPOCH":12483,"BSTAR":4.6473e-5,"MEAN_MOTION_DOT":3.1e-7,"MEAN_MOTION_DDOT":0},{"OBJECT_NAME":"ONEWEB-0418","OBJECT_ID":"2021-132AA","EPOCH":"2024-06-12T22:20:31.333344","MEAN_MOTION":13.18684218,"ECCENTRICITY":0.0001559,"INCLINATION":87.9139,"RA_OF_ASC_NODE":121.6282,"ARG_OF_PERICENTER":82.777,"MEAN_ANOMALY":277.3539,"EPHEMERIS_TYPE":0,"CLASSIFICATION_TYPE":"U","NORAD_CAT_ID":50493,"ELEMENT_SET_NO":999,"REV_AT_EPOCH":12489,"BSTAR":-8.8156e-5,"MEAN_MOTION_DOT":-2.2e-7,"MEAN_MOTION_DDOT":0},{"OBJECT_NAME":"ONEWEB-0419","OBJECT_ID":"2021-132AB","EPOCH":"2024-06-12T20:56:31.140960","MEAN_MOTION":13.18685761,"ECCENTRICITY":0.00019,"INCLINATION":87.9132,"RA_OF_ASC_NODE":121.6572,"ARG_OF_PERICENTER":74.9911,"MEAN_ANOMALY":285.1431,"EPHEMERIS_TYPE":0,"CLASSIFICATION_TYPE":"U","NORAD_CAT_ID":50494,"ELEMENT_SET_NO":999,"REV_AT_EPOCH":12480,"BSTAR":7.2841e-5,"MEAN_MOTION_DOT":4.2e-7,"MEAN_MOTION_DDOT":0},{"OBJECT_NAME":"ONEWEB-0420","OBJECT_ID":"2021-132AC","EPOCH":"2024-06-12T21:57:56.772288","MEAN_MOTION":13.18688071,"ECCENTRICITY":0.0002457,"INCLINATION":87.9134,"RA_OF_ASC_NODE":121.6573,"ARG_OF_PERICENTER":84.6964,"MEAN_ANOMALY":275.4449,"EPHEMERIS_TYPE":0,"CLASSIFICATION_TYPE":"U","NORAD_CAT_ID":50495,"ELEMENT_SET_NO":999,"REV_AT_EPOCH":12480,"BSTAR":-0.00031167,"MEAN_MOTION_DOT":-1.1e-6,"MEAN_MOTION_DDOT":0},{"OBJECT_NAME":"ONEWEB-0421","OBJECT_ID":"2021-132AD","EPOCH":"2024-06-12T21:48:51.985728","MEAN_MOTION":13.18684687,"ECCENTRICITY":0.0002146,"INCLINATION":87.9143,"RA_OF_ASC_NODE":121.6242,"ARG_OF_PERICENTER":94.2794,"MEAN_ANOMALY":265.8583,"EPHEMERIS_TYPE":0,"CLASSIFICATION_TYPE":"U","NORAD_CAT_ID":50496,"ELEMENT_SET_NO":999,"REV_AT_EPOCH":12484,"BSTAR":0.00014593,"MEAN_MOTION_DOT":7.0e-7,"MEAN_MOTION_DDOT":0},{"OBJECT_NAME":"ONEWEB-0424","OBJECT_ID":"2021-132AE","EPOCH":"2024-06-12T20:49:39.409536","MEAN_MOTION":13.18687406,"ECCENTRICITY":0.0002012,"INCLINATION":87.9136,"RA_OF_ASC_NODE":121.6385,"ARG_OF_PERICENTER":67.2528,"MEAN_ANOMALY":292.8817,"EPHEMERIS_TYPE":0,"CLASSIFICATION_TYPE":"U","NORAD_CAT_ID":50497,"ELEMENT_SET_NO":999,"REV_AT_EPOCH":12486,"BSTAR":2.499e-5,"MEAN_MOTION_DOT":2.3e-7,"MEAN_MOTION_DDOT":0},{"OBJECT_NAME":"ONEWEB-0426","OBJECT_ID":"2021-132AF","EPOCH":"2024-06-12T21:44:18.363840","MEAN_MOTION":13.18684624,"ECCENTRICITY":0.0001627,"INCLINATION":87.9135,"RA_OF_ASC_NODE":121.6482,"ARG_OF_PERICENTER":98.2462,"MEAN_ANOMALY":261.8855,"EPHEMERIS_TYPE":0,"CLASSIFICATION_TYPE":"U","NORAD_CAT_ID":50498,"ELEMENT_SET_NO":999,"REV_AT_EPOCH":12481,"BSTAR":0.00015728,"MEAN_MOTION_DOT":7.5e-7,"MEAN_MOTION_DDOT":0},{"OBJECT_NAME":"ONEWEB-0427","OBJECT_ID":"2021-132AG","EPOCH":"2024-06-12T20:47:23.408160","MEAN_MOTION":13.18684206,"ECCENTRICITY":0.0001836,"INCLINATION":87.9135,"RA_OF_ASC_NODE":121.6336,"ARG_OF_PERICENTER":83.8522,"MEAN_ANOMALY":276.2819,"EPHEMERIS_TYPE":0,"CLASSIFICATION_TYPE":"U","NORAD_CAT_ID":50499,"ELEMENT_SET_NO":999,"REV_AT_EPOCH":12483,"BSTAR":8.1033e-5,"MEAN_MOTION_DOT":4.5e-7,"MEAN_MOTION_DDOT":0}]
